[{"OBJECT_NAME":"CS2","OBJECT_ID":"2021-088C","EPOCH":"2026-03-09T17:38:11.846112","MEAN_MOTION":15.3325593,"ECCENTRICITY":0.00116375,"INCLINATION":97.3928,"RA_OF_ASC_NODE":134.2907,"ARG_OF_PERICENTER":82.3491,"MEAN_ANOMALY":277.9072,"EPHEMERIS_TYPE":0,"CLASSIFICATION_TYPE":"U","NORAD_CAT_ID":49262,"ELEMENT_SET_NO":999,"REV_AT_EPOCH":24526,"BSTAR":0.0005617759,"MEAN_MOTION_DOT":0.00018033,"MEAN_MOTION_DDOT":0},{"OBJECT_NAME":"STARLINK-35196","OBJECT_ID":"2025-232C","EPOCH":"2026-03-09T19:01:11.792640","MEAN_MOTION":15.30200138,"ECCENTRICITY":0.00015024,"INCLINATION":53.1586,"RA_OF_ASC_NODE":103.2665,"ARG_OF_PERICENTER":80.3479,"MEAN_ANOMALY":279.7692,"EPHEMERIS_TYPE":0,"CLASSIFICATION_TYPE":"U","NORAD_CAT_ID":66007,"ELEMENT_SET_NO":999,"REV_AT_EPOCH":2344,"BSTAR":0.00068743118,"MEAN_MOTION_DOT":0.00020056,"MEAN_MOTION_DDOT":0}]
